[{"OBJECT_NAME":"OBJECT F","OBJECT_ID":"2023-072F","EPOCH":"2026-03-09T23:31:37.259904","MEAN_MOTION":15.29470958,"ECCENTRICITY":0.00062878,"INCLINATION":97.5173,"RA_OF_ASC_NODE":265.798,"ARG_OF_PERICENTER":19.0017,"MEAN_ANOMALY":341.1456,"EPHEMERIS_TYPE":0,"CLASSIFICATION_TYPE":"U","NORAD_CAT_ID":56748,"ELEMENT_SET_NO":999,"REV_AT_EPOCH":15460,"BSTAR":0.00043416252,"MEAN_MOTION_DOT":0.00012341,"MEAN_MOTION_DDOT":0},{"OBJECT_NAME":"STARLINK-35583","OBJECT_ID":"2025-270Z","EPOCH":"2026-03-09T00:20:17.852064","MEAN_MOTION":15.27592294,"ECCENTRICITY":0.00030319,"INCLINATION":43.004,"RA_OF_ASC_NODE":59.8937,"ARG_OF_PERICENTER":288.7918,"MEAN_ANOMALY":71.2605,"EPHEMERIS_TYPE":0,"CLASSIFICATION_TYPE":"U","NORAD_CAT_ID":66611,"ELEMENT_SET_NO":999,"REV_AT_EPOCH":1771,"BSTAR":0.0012682922,"MEAN_MOTION_DOT":0.00034819,"MEAN_MOTION_DDOT":0}]
